EYESAT A (AO-27)        
1 22825U 93061C   26155.13386559  .00000145  00000+0  72223-4 0  9996
2 22825  98.6882 222.5517 0009249 133.7828 226.4121 14.30938744705139
ITAMSAT (IO-26)         
1 22826U 93061D   26155.11717010  .00000130  00000+0  66015-4 0  9991
2 22826  98.6830 222.4511 0009982 119.1437 241.0746 14.31365091705444
RADIO ROSTO (RS15)      
1 23439U 94085A   26155.16737505 -.00000049  00000+0 -18936-3 0  9994
2 23439  64.8178 324.2733 0155549   6.2800 354.0027 11.27583587294436
JAS-2 (FO-29)           
1 24278U 96046B   26155.07670467 -.00000029  00000+0  38850-5 0  9994
2 24278  98.5251   5.7442 0350656 130.3680 232.8639 13.53273623471395
FORTE                   
1 24920U 97047A   26155.06564427  .00000207  00000+0  10661-3 0  9992
2 24920  69.9543  43.6595 0024406 293.2497  66.6056 14.27939819496819
TECHSAT 1B (GO-32)      
1 25397U 98043D   26154.57772251  .00000069  00000+0  49972-4 0  9993
2 25397  99.0064 146.9934 0000319 213.6137 146.5021 14.24425649449397
ISS (ZARYA)             
1 25544U 98067A   26154.96745432  .00008451  00000+0  15807-3 0  9999
2 25544  51.6330   5.5404 0007081 130.0270 230.1341 15.49590346569704
IMAGE                   
1 26113U 00017A   26152.26636047 -.00000099  00000+0 -18882-1 0  9998
2 26113  94.2162 315.1599 7443736 289.6105   8.6041  1.68666062161230
CLUSTER II-FM7 (SAMBA)  
1 26410U 00041A   26156.98399886  .00004453  00000+0  00000+0 0  9992
2 26410 149.8917  48.5803 9040965 265.6480   0.0292  0.44829937 20254
CLUSTER II-FM8 (TANGO)  
1 26464U 00045B   26150.42970564  .00004404  00000+0  00000+0 0  9992
2 26464 150.1271  48.5941 9036059 265.4393   3.5087  0.44418197 20234
ODIN                    
1 26702U 01007A   26155.18611879  .00162235  00000+0  12424-2 0  9998
2 26702  97.3862 195.3329 0006368 160.3716 199.7793 15.71608948387353
OMNI-M1                 
1 26857U 01026A   26152.43086132 -.00000010  00000+0  00000+0 0  9990
2 26857  44.8352 248.8960 0014672  50.7644 309.4132  3.92401639204958
PCSAT (NO-44)           
1 26931U 01043C   26154.60928777  .00000163  00000+0  91734-4 0  9990
2 26931  67.0512 279.3895 0006115 263.9670  96.0735 14.31950876288500
PROBA-1                 
1 26958U 01049B   26155.25931456  .00002126  00000+0  14014-3 0  9991
2 26958  97.9594 163.3416 0055402 164.8987 195.3910 15.07438513341674
SAUDISAT 1C (SO-50)     
1 27607U 02058C   26154.26409835  .00001126  00000+0  14986-3 0  9992
2 27607  64.5505 172.0623 0075519 265.0164  94.2317 14.83015002262393
CORIOLIS                
1 27640U 03001A   26155.09066796  .00000099  00000+0  66958-4 0  9990
2 27640  98.7126 162.1754 0012865 249.0733 110.9067 14.19941104212362
CUTE-1 (CO-55)          
1 27844U 03031E   26154.54951729  .00000336  00000+0  16425-3 0  9994
2 27844  98.6736 163.2800 0008690 219.4250 140.6297 14.24327019189732
CUBESAT XI-IV (CO-57)   
1 27848U 03031J   26152.00092913  .00000288  00000+0  14576-3 0  9999
2 27848  98.6768 160.4891 0008288 248.3946 111.6350 14.23611465189071
MOZHAETS 4 (RS22)       
1 27939U 03042A   26155.32129924  .00001083  00000+0  17509-3 0  9996
2 27939  98.3465 339.3166 0010398 315.2695 168.2196 14.73443963213654
